NORAD_CAT_ID,OBJECT_NAME,OBJECT_TYPE,EPOCH,MEAN_MOTION,ECCENTRICITY,INCLINATION,RA_OF_ASC_NODE,ARG_OF_PERICENTER,MEAN_ANOMALY,BSTAR,MEAN_MOTION_DOT,MEAN_MOTION_DDOT,TLE_LINE0,TLE_LINE1,TLE_LINE2,SEMIMAJOR_AXIS,PERIOD,APOGEE,PERIGEE,DECAYED
50163.0,STARLINK-3306,PAYLOAD,2024-03-20 17:15:38,15.08834211,0.0001386,53.2168,226.6942,93.9059,266.2092,3.0075e-05,1.91e-06,0.0,0 STARLINK-3306,1 50163U 21125H   24080.71919754  .00000191  00000-0  30075-4 0  9993,2 50163  53.2168 226.6942 0001386  93.9059 266.2092 15.08834211127714,6917.898,95.438,540.722,538.804,0.0
50163.0,STARLINK-3306,PAYLOAD,2024-03-21 02:47:56,15.08849804,0.0001343,53.2167,224.9068,81.0955,279.0189,0.00013639,1.884e-05,0.0,0 STARLINK-3306,1 50163U 21125H   24081.11662428  .00001884  00000-0  13639-3 0  9997,2 50163  53.2167 224.9068 0001343  81.0955 279.0189 15.08849804127778,6917.85,95.437,540.644,538.786,0.0
50163.0,STARLINK-3306,PAYLOAD,2024-03-21 15:31:00,15.08854438,0.0001189,53.2156,222.5288,81.6522,278.4605,0.00014931,2.09e-05,0.0,0 STARLINK-3306,1 50163U 21125H   24081.64653778  .00002090  00000-0  14931-3 0  9999,2 50163  53.2156 222.5288 0001189  81.6522 278.4605 15.08854438128336,6917.836,95.437,540.524,538.879,0.0
50163.0,STARLINK-3306,PAYLOAD,2024-03-21 17:06:23,15.08866794,0.0001399,53.2174,222.2318,81.1939,278.9211,0.00026752,3.975e-05,0.0,0 STARLINK-3306,1 50163U 21125H   24081.71276739  .00003975  00000-0  26752-3 0  9992,2 50163  53.2174 222.2318 0001399  81.1939 278.9211 15.08866794127860,6917.798,95.436,540.631,538.696,0.0
50163.0,STARLINK-3306,PAYLOAD,2024-03-22 13:46:25,15.08839338,0.0001345,53.2175,218.3647,92.2079,267.9067,8.6158e-05,1.084e-05,0.0,0 STARLINK-3306,1 50163U 21125H   24082.57390747  .00001084  00000-0  86158-4 0  9999,2 50163  53.2175 218.3647 0001345  92.2079 267.9067 15.08839338128470,6917.882,95.438,540.678,538.817,0.0
50163.0,STARLINK-3306,PAYLOAD,2024-03-22 18:32:35,15.0883524,0.0001263,53.2185,217.4746,100.3533,259.7602,5.0636e-05,5.18e-06,0.0,0 STARLINK-3306,1 50163U 21125H   24082.77263064  .00000518  00000-0  50636-4 0  9995,2 50163  53.2185 217.4746 0001263 100.3533 259.7602 15.08835240128029,6917.895,95.438,540.634,538.886,0.0
50163.0,STARLINK-3306,PAYLOAD,2024-03-23 15:12:36,15.08845262,0.0001435,53.2175,213.607,100.7404,259.375,-0.00018369,-3.211e-05,0.0,0 STARLINK-3306,1 50163U 21125H   24083.63375308 -.00003211  00000-0 -18369-3 0  9997,2 50163  53.2175 213.6070 0001435 100.7404 259.3750 15.08845262128630,6917.864,95.437,540.722,538.737,0.0
50163.0,STARLINK-3306,PAYLOAD,2024-03-24 13:28:00,15.08831998,0.0001563,53.2173,209.441,121.9589,238.1555,0.00018489,2.655e-05,0.0,0 STARLINK-3306,1 50163U 21125H   24084.56111308  .00002655  00000-0  18489-3 0  9990,2 50163  53.2173 209.4410 0001563 121.9589 238.1555 15.08831998128291,6917.905,95.438,540.851,538.689,0.0
50163.0,STARLINK-3306,PAYLOAD,2024-03-24 18:14:09,15.0883684,0.000119,53.216,208.5451,112.5957,247.5161,0.00022798,3.342e-05,0.0,0 STARLINK-3306,1 50163U 21125H   24084.75983101  .00003342  00000-0  22798-3 0  9991,2 50163  53.2160 208.5451 0001190 112.5957 247.5161 15.08836840128808,6917.89,95.438,540.578,538.932,0.0
50163.0,STARLINK-3306,PAYLOAD,2024-03-25 14:54:10,15.08848331,0.0001304,53.2162,204.6833,85.7398,274.3744,0.00022167,3.243e-05,0.0,0 STARLINK-3306,1 50163U 21125H   24085.62095144  .00003243  00000-0  22167-3 0  9999,2 50163  53.2162 204.6833 0001304  85.7398 274.3744 15.08848331128452,6917.855,95.437,540.622,538.818,0.0
50163.0,STARLINK-3306,PAYLOAD,2024-03-26 13:09:36,15.08813172,0.0001727,53.2175,200.5226,117.5307,242.586,-0.00012549,-2.283e-05,0.0,0 STARLINK-3306,1 50163U 21125H   24086.54834006 -.00002283  00000-0 -12549-3 0  9997,2 50163  53.2175 200.5226 0001727 117.5307 242.5860 15.08813172128596,6917.962,95.439,541.022,538.633,0.0
50163.0,STARLINK-3306,PAYLOAD,2024-03-26 14:44:59,15.08814083,0.000142,53.2173,200.2262,106.245,253.8698,-0.00010719,-1.992e-05,0.0,0 STARLINK-3306,1 50163U 21125H   24086.61458036 -.00001992  00000-0 -10719-3 0  9993,2 50163  53.2173 200.2262 0001420 106.2450 253.8698 15.08814083129086,6917.96,95.439,540.807,538.842,0.0
50163.0,STARLINK-3306,PAYLOAD,2024-03-26 16:20:22,15.08815564,0.0001444,53.2176,199.9286,105.688,254.4271,-9.6771e-05,-1.827e-05,0.0,0 STARLINK-3306,1 50163U 21125H   24086.68082008 -.00001827  00000-0 -96771-4 0  9992,2 50163  53.2176 199.9286 0001444 105.6880 254.4271 15.08815564129095,6917.955,95.439,540.819,538.821,0.0
50163.0,STARLINK-3306,PAYLOAD,2024-03-27 00:17:17,15.08835126,0.0001368,53.2174,198.4412,78.5131,281.6014,-0.00011662,-2.143e-05,0.0,0 STARLINK-3306,1 50163U 21125H   24087.01200989 -.00002143  00000-0 -11662-3 0  9997,2 50163  53.2174 198.4412 0001368  78.5131 281.6014 15.08835126128665,6917.895,95.438,540.707,538.814,0.0
50163.0,STARLINK-3306,PAYLOAD,2024-03-27 14:35:45,15.08841541,0.0001566,53.2172,195.7633,90.8587,269.2584,0.00013699,1.893e-05,0.0,0 STARLINK-3306,1 50163U 21125H   24087.60816349  .00001893  00000-0  13699-3 0  9996,2 50163  53.2172 195.7633 0001566  90.8587 269.2584 15.08841541129236,6917.876,95.437,540.824,538.657,0.0
50163.0,STARLINK-3306,PAYLOAD,2024-03-27 16:11:08,15.08847202,0.0001753,53.2168,195.4726,115.536,244.5814,0.00025396,3.757e-05,0.0,0 STARLINK-3306,1 50163U 21125H   24087.67440123  .00003757  00000-0  25396-3 0  9994,2 50163  53.2168 195.4726 0001753 115.5360 244.5814 15.08847202128762,6917.858,95.437,540.936,538.511,0.0
50163.0,STARLINK-3306,PAYLOAD,2024-03-28 00:08:02,15.08858974,0.0001634,53.2177,193.9813,86.6908,273.4271,0.00018122,2.599e-05,0.0,0 STARLINK-3306,1 50163U 21125H   24088.00558950  .00002599  00000-0  18122-3 0  9992,2 50163  53.2177 193.9813 0001634  86.6908 273.4271 15.08858974128818,6917.822,95.436,540.818,538.557,0.0
50163.0,STARLINK-3306,PAYLOAD,2024-03-28 12:51:09,15.088278,0.0001527,53.2168,191.6013,93.8272,266.2895,0.00031216,4.682e-05,0.0,0 STARLINK-3306,1 50163U 21125H   24088.53553163  .00004682  00000-0  31216-3 0  9995,2 50163  53.2168 191.6013 0001527  93.8272 266.2895 15.08827800128894,6917.918,95.438,540.839,538.726,0.0
50163.0,STARLINK-3306,PAYLOAD,2024-03-29 12:41:55,15.08851473,0.0001605,53.2166,187.1442,98.3319,261.7855,3.9012e-05,3.33e-06,0.0,0 STARLINK-3306,1 50163U 21125H   24089.52911982  .00000333  00000-0  39012-4 0  9994,2 50163  53.2166 187.1442 0001605  98.3319 261.7855 15.08851473129044,6917.845,95.437,540.821,538.6,0.0
50163.0,STARLINK-3306,PAYLOAD,2024-03-29 23:49:37,15.08862083,0.0001548,53.2164,185.0611,89.2779,270.839,0.00016389,2.323e-05,0.0,0 STARLINK-3306,1 50163U 21125H   24089.99279099  .00002323  00000-0  16389-3 0  9993,2 50163  53.2164 185.0611 0001548  89.2779 270.8390 15.08862083129114,6917.813,95.436,540.749,538.607,0.0
50163.0,STARLINK-3306,PAYLOAD,2024-03-30 12:32:43,15.08835758,0.0001583,53.2149,182.6827,88.9529,271.1645,2.6756e-05,1.38e-06,0.0,0 STARLINK-3306,1 50163U 21125H   24090.52272453  .00000138  00000-0  26756-4 0  9993,2 50163  53.2149 182.6827 0001583  88.9529 271.1645 15.08835758129191,6917.893,95.438,540.853,538.663,0.0
50163.0,STARLINK-3306,PAYLOAD,2024-03-30 23:40:24,15.08844877,0.0001757,53.2178,180.5998,110.9098,249.2082,0.00014948,2.092e-05,0.0,0 STARLINK-3306,1 50163U 21125H   24090.98639984  .00002092  00000-0  14948-3 0  9999,2 50163  53.2178 180.5998 0001757 110.9098 249.2082 15.08844877129260,6917.865,95.437,540.946,538.515,0.0
50163.0,STARLINK-3306,PAYLOAD,2024-03-31 12:23:30,15.08843103,0.0001742,53.2181,178.2231,101.1527,258.9662,0.00014091,1.955e-05,0.0,0 STARLINK-3306,1 50163U 21125H   24091.51632175  .00001955  00000-0  14091-3 0  9990,2 50163  53.2181 178.2231 0001742 101.1527 258.9662 15.08843103129825,6917.871,95.437,540.941,538.531,0.0
50163.0,STARLINK-3306,PAYLOAD,2024-04-01 12:14:17,15.08842387,0.0001452,53.2161,173.7606,93.3914,266.7244,0.0003078,4.614e-05,0.0,0 STARLINK-3306,1 50163U 21125H   24092.50992214  .00004614  00000-0  30780-3 0  9991,2 50163  53.2161 173.7606 0001452  93.3914 266.7244 15.08842387129498,6917.873,95.437,540.743,538.734,0.0
50163.0,STARLINK-3306,PAYLOAD,2024-04-02 12:05:04,15.08832524,0.000152,53.2167,169.304,90.4339,269.6827,-5.5545e-05,-1.172e-05,0.0,0 STARLINK-3306,1 50163U 21125H   24093.50352622 -.00001172  00000-0 -55545-4 0  9990,2 50163  53.2167 169.3040 0001520  90.4339 269.6827 15.08832524129640,6917.903,95.438,540.82,538.717,0.0
50163.0,STARLINK-3306,PAYLOAD,2024-04-02 21:37:23,15.0883996,0.0001528,53.217,167.5196,91.1704,268.9463,6.3681e-05,7.26e-06,0.0,0 STARLINK-3306,1 50163U 21125H   24093.90096317  .00000726  00000-0  63681-4 0  9992,2 50163  53.2170 167.5196 0001528  91.1704 268.9463 15.08839960130188,6917.881,95.438,540.803,538.688,0.0
50163.0,STARLINK-3306,PAYLOAD,2024-04-03 03:58:55,15.08840246,0.0001599,53.2176,166.3301,96.8687,263.2487,3.1732e-05,2.17e-06,0.0,0 STARLINK-3306,1 50163U 21125H   24094.16592353  .00000217  00000-0  31732-4 0  9999,2 50163  53.2176 166.3301 0001599  96.8687 263.2487 15.08840246129742,6917.88,95.438,540.851,538.638,0.0
50163.0,STARLINK-3306,PAYLOAD,2024-04-03 11:55:51,15.08837493,0.0001602,53.2176,164.8436,97.9228,262.1946,1.329e-05,-7.7e-07,0.0,0 STARLINK-3306,1 50163U 21125H   24094.49712618 -.00000077  00000-0  13290-4 0  9997,2 50163  53.2176 164.8436 0001602  97.9228 262.1946 15.08837493130270,6917.888,95.438,540.861,538.645,0.0
50163.0,STARLINK-3306,PAYLOAD,2024-04-03 21:28:10,15.08842531,0.0001592,53.2175,163.0587,92.8929,267.2245,0.0001552,2.183e-05,0.0,0 STARLINK-3306,1 50163U 21125H   24094.89456408  .00002183  00000-0  15520-3 0  9999,2 50163  53.2175 163.0587 0001592  92.8929 267.2245 15.08842531130331,6917.873,95.437,540.839,538.636,0.0
50163.0,STARLINK-3306,PAYLOAD,2024-04-04 11:46:38,15.08838378,0.0001582,53.2174,160.382,87.4049,272.7124,0.00015819,2.23e-05,0.0,0 STARLINK-3306,1 50163U 21125H   24095.49072807  .00002230  00000-0  15819-3 0  9997,2 50163  53.2174 160.3820 0001582  87.4049 272.7124 15.08838378129948,6917.885,95.438,540.845,538.656,0.0
